BEIDOU-3 M19 (C41)      
1 44864U 19090A   26115.30878073 -.00000028  00000+0  00000+0 0  9995
2 44864  56.5154  64.5372 0019827 295.9075  65.7258  1.86231193 43256
BEIDOU-3 M20 (C42)      
1 44865U 19090B   26114.36394936 -.00000022  00000+0  00000+0 0  9996
2 44865  56.5162  64.6031 0017504 308.2106 229.5642  1.86231081 43211
BEIDOU-3 G2 (C60)       
1 45344U 20017A   26115.72554666 -.00000152  00000+0  00000+0 0  9993
2 45344   2.7608  46.5062 0002482 346.6079 161.8621  1.00271445 22732
COSMOS 2545 (760)       
1 45358U 20018A   26115.19812138 -.00000025  00000+0  00000+0 0  9990
2 45358  64.3869 314.2817 0007170 239.0456 120.9093  2.13102365 47539
BEIDOU-3 G3 (C61)       
1 45807U 20040A   26115.87420602 -.00000365  00000+0  00000+0 0  9997
2 45807   2.3208  67.2914 0003709 328.9889 242.8620  1.00270758 21542
GPS BIII-3  (PRN 23)    
1 45854U 20041A   26115.09615082 -.00000095  00000+0  00000+0 0  9992
2 45854  56.6375  31.0034 0062163 205.0676 307.4587  2.00559675 42970
GALAXY 30 (WAAS/PRN 135)
1 46114U 20056C   26115.68489983  .00000000  00000+0  00000+0 0  9997
2 46114   0.0142 234.9528 0002407 170.7438 289.5604  1.00270886 20762
COSMOS 2547 (705K)      
1 46805U 20075A   26115.85641767 -.00000015  00000+0  00000+0 0  9991
2 46805  64.5969 194.2211 0008353 236.9134 123.0532  2.13100244 42796
GPS BIII-4  (PRN 14)    
1 46826U 20078A   26112.92753654 -.00000017  00000+0  00000+0 0  9993
2 46826  53.9891 213.0193 0070939 205.6597 155.6852  2.00564823 40404
GPS BIII-5  (PRN 11)    
1 48859U 21054A   26115.41066175 -.00000081  00000+0  00000+0 0  9999
2 48859  55.1975 334.5809 0024043 229.9675 309.8743  2.00572297 35694
QZS-1R (QZSS/PRN 196)   
1 49336U 21096A   26115.23905425 -.00000231  00000+0  00000+0 0  9993
2 49336  37.3564  80.3620 0751189 270.8159  83.8411  1.00273350 16482
GSAT0223 (GALILEO 27)   
1 49809U 21116A   26114.32314513 -.00000088  00000+0  00000+0 0  9992
2 49809  57.1776 343.1299 0000234 233.2925 308.9540  1.70475480 27263
GSAT0224 (GALILEO 28)   
1 49810U 21116B   26114.72218082 -.00000089  00000+0  00000+0 0  9993
2 49810  57.1774 343.1180 0000625  14.3979 165.3634  1.70475626 27297
COSMOS 2557 (706K)      
1 52984U 22075A   26115.08260141 -.00000027  00000+0  00000+0 0  9999
2 52984  64.3294 316.3562 0010220 281.4601  78.4529  2.13101820 29588
COSMOS 2559 (707K)      
1 54031U 22130A   26114.90210039 -.00000027  00000+0  00000+0 0  9997
2 54031  64.3024 316.4476 0011331 176.1695 183.8669  2.13101428 27551
COSMOS 2564 (761)       
1 54377U 22161A   26115.21476318 -.00000018  00000+0  00000+0 0  9993
2 54377  64.7390 194.4694 0011000 219.4680 140.4982  2.13101930 26507
GPS BIII-6  (PRN 28)    
1 55268U 23009A   26114.11794736  .00000038  00000+0  00000+0 0  9991
2 55268  55.1140 150.6438 0005563 314.9389  49.0235  2.00575001 24163
